{
  "countyName": "Merkez",
  "countyTowns": [
    {
      "townName": "Edirne",
      "townVillages": [
        {
          "villageName": "1.murat mah",
          "zipCode": 22100
        },
        {
          "villageName": "Abdurrahman mah",
          "zipCode": 22100
        },
        {
          "villageName": "Babademirtaş mah",
          "zipCode": 22100
        },
        {
          "villageName": "Barutluk mah",
          "zipCode": 22100
        },
        {
          "villageName": "Dilaverbey mah",
          "zipCode": 22100
        },
        {
          "villageName": "Fatih mah",
          "zipCode": 22100
        },
        {
          "villageName": "Karaağaç mah",
          "zipCode": 22100
        },
        {
          "villageName": "Koca sinan mah",
          "zipCode": 22100
        },
        {
          "villageName": "Medrese ali bey mah",
          "zipCode": 22100
        },
        {
          "villageName": "Menzilahır mah",
          "zipCode": 22100
        },
        {
          "villageName": "Meydan mah",
          "zipCode": 22100
        },
        {
          "villageName": "Mithat paşa mah",
          "zipCode": 22100
        },
        {
          "villageName": "Nişancıpaşa mah",
          "zipCode": 22100
        },
        {
          "villageName": "Sabuni mah",
          "zipCode": 22100
        },
        {
          "villageName": "Sarıcapaşa mah",
          "zipCode": 22100
        },
        {
          "villageName": "Talatpaşa mah",
          "zipCode": 22100
        },
        {
          "villageName": "Umurbey mah",
          "zipCode": 22100
        },
        {
          "villageName": "Yancıkçı şahin mah",
          "zipCode": 22100
        },
        {
          "villageName": "Yeniimaret mah",
          "zipCode": 22100
        },
        {
          "villageName": "Yıldırım beyazıt mah",
          "zipCode": 22100
        },
        {
          "villageName": "Yıldırım hacı sarraf mah",
          "zipCode": 22100
        },
        {
          "villageName": "Çavuşbey mah",
          "zipCode": 22100
        },
        {
          "villageName": "İstasyon mah",
          "zipCode": 22100
        },
        {
          "villageName": "Şükrüpaşa mah",
          "zipCode": 22100
        }
      ]
    },
    {
      "townName": "Merkezköyler",
      "townVillages": [
        {
          "villageName": "Ahı köyü",
          "zipCode": 22130
        },
        {
          "villageName": "Avarız köyü",
          "zipCode": 22130
        },
        {
          "villageName": "Bosna köyü",
          "zipCode": 22130
        },
        {
          "villageName": "Budakdoğanca köyü",
          "zipCode": 22130
        },
        {
          "villageName": "Büyükdöllük köyü",
          "zipCode": 22130
        },
        {
          "villageName": "Büyükismailçe köyü",
          "zipCode": 22130
        },
        {
          "villageName": "Demirhanlı köyü",
          "zipCode": 22130
        },
        {
          "villageName": "Değirmenyeni köyü",
          "zipCode": 22130
        },
        {
          "villageName": "Doyran köyü",
          "zipCode": 22130
        },
        {
          "villageName": "Ekmekçi köyü",
          "zipCode": 22130
        },
        {
          "villageName": "Elçili köyü",
          "zipCode": 22130
        },
        {
          "villageName": "Eskikadın köyü",
          "zipCode": 22130
        },
        {
          "villageName": "Hacıumur köyü",
          "zipCode": 22130
        },
        {
          "villageName": "Hasanağa köyü",
          "zipCode": 22130
        },
        {
          "villageName": "Hatip köyü",
          "zipCode": 22130
        },
        {
          "villageName": "Hıdırağa köyü",
          "zipCode": 22130
        },
        {
          "villageName": "Karabulut köyü",
          "zipCode": 22130
        },
        {
          "villageName": "Karakasım köyü",
          "zipCode": 22130
        },
        {
          "villageName": "Karayusuf köyü",
          "zipCode": 22130
        },
        {
          "villageName": "Kayapa köyü",
          "zipCode": 22130
        },
        {
          "villageName": "Kemal köyü",
          "zipCode": 22130
        },
        {
          "villageName": "Korucu köyü",
          "zipCode": 22130
        },
        {
          "villageName": "Köşençiftliği köyü",
          "zipCode": 22130
        },
        {
          "villageName": "Küçükdöllük köyü",
          "zipCode": 22130
        },
        {
          "villageName": "Menekşesofular köyü",
          "zipCode": 22130
        },
        {
          "villageName": "Muratçalı köyü",
          "zipCode": 22130
        },
        {
          "villageName": "Musabeyli köyü",
          "zipCode": 22130
        },
        {
          "villageName": "Orhaniye köyü",
          "zipCode": 22130
        },
        {
          "villageName": "Sarayakpınar köyü",
          "zipCode": 22130
        },
        {
          "villageName": "Sazlıdere köyü",
          "zipCode": 22130
        },
        {
          "villageName": "Suakacağı köyü",
          "zipCode": 22130
        },
        {
          "villageName": "Tayakadın köyü",
          "zipCode": 22130
        },
        {
          "villageName": "Uzgaç köyü",
          "zipCode": 22130
        },
        {
          "villageName": "Yenikadın köyü",
          "zipCode": 22130
        },
        {
          "villageName": "Yolüstü köyü",
          "zipCode": 22130
        },
        {
          "villageName": "Üyüklütatar köyü",
          "zipCode": 22130
        },
        {
          "villageName": "İskender köyü",
          "zipCode": 22130
        }
      ]
    }
  ]
}